    CK13F010  2012 11 29.5546  1.873762  1.002055   92.1241   30.1124   79.6288  20190514  13.0  4.0  C/2013 F1 (Boattini)                                     MPC 84626
    CK13F020  2013 04 16.6694  6.232767  0.992444  123.0881  344.3146   61.8333  20190514   7.0  4.0  C/2013 F2 (Catalina)                                     MPC 88695
    CK13F030  2013 05 25.6484  2.256492  0.996604   18.8086  265.9990   85.5994  20190514  12.0  4.0  C/2013 F3 (McNaught)                                     MPC 84933
    PK13G010  2013 12 12.8817  3.347220  0.513601   51.2477  221.4398    5.4734  20190514  11.0  4.0  P/2013 G1 (Kowalski)                                     MPC 91612
    CK13G020  2012 12  4.6999  2.159225  0.999835  293.8894  273.8980   95.8986  20190514  11.5  4.0  C/2013 G2 (McNaught)                                     MPC 84933
    CK13G030  2014 11 16.3918  3.851948  1.002583   76.5614  208.1055   64.6508  20190514   9.0  4.0  C/2013 G3 (PANSTARRS)                                    MPC102950
    PK13G040  2022 06 19.0330  2.617305  0.410211  214.7269  339.6801    5.9169  20190514  15.0  4.0  P/2013 G4 (PANSTARRS)                                    MPC 84025
    CK13G050  2013 09  2.4126  0.920422  0.999866  165.7050  144.0008   40.7581  20190514  14.0  4.0  C/2013 G5 (Catalina)                                     MPC 84318
    CK13G060  2013 07 26.4957  2.053165  0.995182  215.8142   44.5501  124.1223  20190514  13.5  4.0  C/2013 G6 (Lemmon)                                       MPC 87478
    CK13G070  2014 03 20.4719  4.687036  0.998948  218.4449   48.3629  105.1048  20190514   7.5  4.0  C/2013 G7 (McNaught)                                     MPC 95209
    CK13G080  2013 11 15.6234  5.130907  0.998299   80.0873  240.9758   27.6475  20190514   8.5  4.0  C/2013 G8 (PANSTARRS)                                    MPC 95209
    CK13G090  2015 01 16.7142  5.346810  1.001502  205.2225   35.7604  146.2482  20190514   7.0  4.0  C/2013 G9 (Tenagra)                                      MPC 10027
    CK13H010  2013 05 20.0173  2.658769  0.987131  136.9171   84.7992   27.0692  20190514  13.0  4.0  C/2013 H1 (La Sagra)                                     MPC 84933
    CK13H020  2014 01 25.3489  7.514929  1.000064   36.1512  262.6733  128.3974  20190514   6.5  4.0  C/2013 H2 (Boattini)                                     MPC 94670
    PK13J020  2013 08 24.2312  2.137072  0.656716   37.7152  289.4208   15.5313  20190514  13.0  4.0  P/2013 J2 (McNaught)                                     MPC 91613
    CK13J030  2013 02 21.4761  4.009685  0.996446  321.1696  200.8032  118.2156  20190514  10.0  4.0  C/2013 J3 (McNaught)                                     MPC 87916
    PK13J040  2013 11  4.2199  1.903367  0.230994  118.7706   84.0011    5.0352            14.0  4.0  P/2013 J4 (PANSTARRS)                                    MPC 87066
    CK13J050  2012 11 29.4052  4.926240  0.997211   19.2836  256.6811  136.0355  20190514  10.0  4.0  C/2013 J5 (Boattini)                                     MPC 84319
    CK13J060  2013 04  7.8764  2.429360  0.959314  125.7835   68.2867   84.9915  20190514  14.5  4.0  C/2013 J6 (Catalina)                                     MPC 84627
    CK13K010  2013 05 31.4160  0.940657  0.987807  171.3607  125.6749   42.5386  20190514  18.0  4.0  C/2013 K1 (Christensen)                                  MPC 84319
    CK13L020  2012 05  9.2868  4.879663  0.998898    1.8738  285.7181  106.8199  20190514   8.0  4.0  C/2013 L2 (Catalina)                                     MPC 87916
    PK13N030  2014 02 12.3078  3.014605  0.592200  323.7838   17.5720    2.1715  20190514  13.0  4.0  P/2013 N3 (PANSTARRS)                                    MPC 86229
    CK13N040  2013 08 19.0423  1.219612  0.974188  142.2532  322.7968   36.9898  20190514  12.0  4.0  C/2013 N4 (Borisov)                                      MPC 88328
    PK13N050  2013 06 29.8193  1.831202  0.730839  176.8868  187.1949   23.3751  20190514  17.0  4.0  P/2013 N5 (PANSTARRS)                                    MPC 85834
    PK13O020  2021 05 22.5052  2.105841  0.445884  213.6949  207.3709   13.3188  20190514  14.0  4.0  P/2013 O2 (PANSTARRS)                                    MPC 87479
    CK13O030  2013 09  8.7567  3.188416  0.995292  337.9666  276.6032  102.8402  20190514  11.5  4.0  C/2013 O3 (McNaught)                                     MPC 90767
    PK13P010  2013 02 28.0516  3.372982  0.606020  137.9443  160.6974   18.7111  20190514  12.0  4.0  P/2013 P1 (PANSTARRS)                                    MPC 85834
    CK13P020  2014 02 15.1988  2.846056  0.996274  105.0994    2.1354  125.6693  20190514  11.5  4.0  C/2013 P2 (PANSTARRS)                                    MPC 93584
    CK13P030  2014 11 20.5518  8.638869  0.999618  177.0064  177.2319   93.8894  20190514   5.5  4.0  C/2013 P3 (Palomar)                                      MPC111767
    CK13P040  2014 08  9.6064  5.953261  0.594124  113.2668  256.5944    4.2721  20190514   7.5  4.0  C/2013 P4 (PANSTARRS)                                    MPC 96865
    CK13P67E  2013 12  6.0121  1.877643  0.963863   59.9901  326.0010  116.8120  20190514  14.0  4.0  C/2013 PE67 (Catalina-Spacewatch)                        MPC 88696
    CK13R010  2013 12 20.9308  0.817792  0.998228   67.3108   70.5766   63.8552  20190514   7.1  5.6  C/2013 R1 (Lovejoy)                                      MPC102950
    PK13R030  2018 12  6.4663  2.200242  0.274688   11.1188  342.0197    0.8653  20190514  14.0  4.0  P/2013 R3 (Catalina-PANSTARRS)                           MPC 94671
    CK13S010  2013 08  2.2998  2.809985  0.998348  165.8258  221.5744   83.9675  20190514  13.0  4.0  C/2013 S1 (Catalina)                                     MPC 86230
    PK13T010  2013 07 29.7069  2.213849  0.622555  346.0582   10.1170   24.2389  20190514  16.5  4.0  P/2013 T1 (PANSTARRS)                                    MPC 85835
    PK13T020  2019 11 30.4762  1.740383  0.501316  345.4086    0.8426    9.4558  20190514  16.0  4.0  P/2013 T2 (Schwartz)                                     MPC 86643
    PK13TB7L  2020 12 24.3124  1.122193  0.688978  112.2563    3.3173    9.3642  20190514  17.5  4.0  P/2013 TL117 (Lemmon)                                    MPC 88696
    CK13T05W  2014 08 16.5238  5.842317  0.977953  190.4963  319.7263   31.4025  20190514   7.5  4.0  C/2013 TW5 (Spacewatch)                                  MPC104789
    CK13U010  2013 11 19.1020  2.407290  0.797087  142.9930  211.2118   23.9448  20190514  13.5  4.0  C/2013 U1 (Catalina)                                     MPC 86643
    CK13U020  2014 10 26.0293  5.145591  0.989689  107.9157    6.8939   43.2418  20190514   7.5  4.0  C/2013 U2 (Holvorcem)                                    MPC104790
    CK13U04Q  2014 07  3.9345  1.094606  0.981155   23.6809  317.8187  145.1439  20190514  13.5  4.0  C/2013 UQ4 (Catalina)                                    MPC102951
    CK13U10S  2015 11 16.0672  0.824403  1.000557  340.5185  186.2569  148.8360  20190514   5.7  3.0  C/2013 US10 (Catalina)                                   MPC110080
    CK13V010  2014 04 19.2310  1.670797  1.001166   48.1689   72.8159   64.9935  20190514  10.5  4.0  C/2013 V1 (Boattini)                                     MPC102951
    CK13V020  2014 10 12.1731  3.515964  1.001044   94.5129   48.3997   37.8357  20190514   7.0  4.0  C/2013 V2 (Borisov)                                      MPC 10027
    CK13V030  2013 10 26.8218  1.390712  0.889533  339.5210  101.0112   32.0958  20190514  14.0  4.0  C/2013 V3 (Nevski)                                       MPC 88329
    CK13V040  2015 10  6.4220  5.184857  0.999469   40.3938   55.6349   67.8610  20190514   6.0  4.0  C/2013 V4 (Catalina)                                     MPC111767
    CK13V050  2014 09 26.4497  0.632007  0.998033  314.8021  278.7608  154.8877  20190514   9.0  4.0  C/2013 V5 (Oukaimeden)                                   MPC102951
    PK13W010  2020 09 10.3739  1.420999  0.592738    1.3271  117.8512    4.6956  20190514  17.5  4.0  P/2013 W1 (PANSTARRS)                                    MPC 91613
    CK13W020  2014 11 23.2993  4.388570  0.545991  304.2085  178.3515    4.8461  20190514  13.5  2.0  C/2013 W2 (PANSTARRS)                                    MPC109141
    CK13X010  2016 04 19.9574  1.316815  1.000334  165.1157  131.6270  163.1823  20190514   4.2  5.6  C/2013 X1 (PANSTARRS)                                    MPC111767
    CK13Y020  2014 06 12.9477  1.930999  0.991950  309.1373  243.2997   29.3948  20190514  12.0  4.0  C/2013 Y2 (PANSTARRS)                                    MPC 90768
    PK13Y46G  2017 01 29.8498  1.786816  0.454728  242.4132   48.9022    7.8579  20190514  10.0  4.0  P/2013 YG46 (Spacewatch)                                 MPC101095
    PK14A020  2013 10 23.2219  2.092399  0.646791  356.3470  106.6263   24.5520  20190514  15.0  4.0  P/2014 A2 (Hill)                                         MPC 89728
    PK14A030  2023 04 19.0893  3.514709  0.243414  212.1010  230.4339   13.6918  20190514  12.0  4.0  P/2014 A3 (PANSTARRS)                                    MPC 92981
    CK14A040  2015 09  4.7486  4.174509  0.999203  356.6383   29.7151  121.3692  20190514   6.0  4.0  C/2014 A4 (SONEAR)                                       MPC108592
    CK14A050  2014 08  8.9884  4.805819  0.942843  182.3832  310.0774   31.9690  20190514  10.0  4.0  C/2014 A5 (PANSTARRS)                                    MPC 93585
    CK14A52A  2015 02 27.3849  1.999094  1.000194  292.1479  330.3848  105.1465  20190514  10.0  4.0  C/2014 AA52 (Catalina)                                   MPC 96865
    CK14B010  2017 09 10.5333  9.556594  1.003750  345.8416  161.3957   28.3722  20170904   1.9  4.0  C/2014 B1 (Schwartz)                                     MPEC 2019-T169
